NORAD_CAT_ID,OBJECT_NAME,OBJECT_TYPE,EPOCH,MEAN_MOTION,ECCENTRICITY,INCLINATION,RA_OF_ASC_NODE,ARG_OF_PERICENTER,MEAN_ANOMALY,BSTAR,MEAN_MOTION_DOT,MEAN_MOTION_DDOT,TLE_LINE0,TLE_LINE1,TLE_LINE2,SEMIMAJOR_AXIS,PERIOD,APOGEE,PERIGEE,DECAYED
53618.0,STARLINK-4604,PAYLOAD,2023-06-25 16:51:05,15.08844535,0.0001301,53.2181,349.2844,103.3929,256.7208,0.00066206,0.00010266,0.0,0 STARLINK-4604,1 53618U 22104AG  23176.70215013  .00010266  00000-0  66206-3 0  9998,2 53618  53.2181 349.2844 0001301 103.3929 256.7208 15.08844535 45902,6917.867,95.437,540.632,538.832,0.0
53618.0,STARLINK-4604,PAYLOAD,2023-06-26 10:20:20,15.08837488,9.2e-05,53.218,346.0136,107.0537,253.0556,0.00019926,2.885e-05,0.0,0 STARLINK-4604,1 53618U 22104AG  23177.43079175  .00002885  00000-0  19926-3 0  9991,2 53618  53.2180 346.0136 0000920 107.0537 253.0556 15.08837488 46010,6917.888,95.438,540.39,539.117,0.0
53618.0,STARLINK-4604,PAYLOAD,2023-06-26 19:52:39,15.08851826,9.64e-05,53.2175,344.2303,101.0207,259.0893,0.0014049,0.00022149,0.0,0 STARLINK-4604,1 53618U 22104AG  23177.82823120  .00022149  00000-0  14049-2 0  9996,2 53618  53.2175 344.2303 0000964 101.0207 259.0893 15.08851826 46074,6917.844,95.437,540.376,539.042,0.0
53618.0,STARLINK-4604,PAYLOAD,2023-06-27 10:11:07,15.08852077,0.0001701,53.2173,341.5534,82.119,277.9995,0.00089535,0.00013995,0.0,0 STARLINK-4604,1 53618U 22104AG  23178.42439352  .00013995  00000-0  89535-3 0  9995,2 53618  53.2173 341.5534 0001701  82.1190 277.9995 15.08852077 46169,6917.843,95.437,540.885,538.532,0.0
53618.0,STARLINK-4604,PAYLOAD,2023-06-27 18:08:03,15.08846322,9.87e-05,53.2174,340.067,99.2059,260.9045,0.0003659,5.541e-05,0.0,0 STARLINK-4604,1 53618U 22104AG  23178.75559152  .00005541  00000-0  36590-3 0  9993,2 53618  53.2174 340.0670 0000987  99.2059 260.9045 15.08846322 46213,6917.861,95.437,540.409,539.043,0.0
53618.0,STARLINK-4604,PAYLOAD,2023-06-28 10:01:54,15.08840283,8.13e-05,53.2177,337.0948,111.5987,248.5092,0.00019283,2.783e-05,0.0,0 STARLINK-4604,1 53618U 22104AG  23179.41799288  .00002783  00000-0  19283-3 0  9998,2 53618  53.2177 337.0948 0000813 111.5987 248.5092 15.08840283 46311,6917.88,95.438,540.307,539.182,0.0
53618.0,STARLINK-4604,PAYLOAD,2023-06-29 09:52:41,15.08838723,0.0001092,53.2177,332.633,98.8473,261.2642,7.4189e-05,8.93e-06,0.0,0 STARLINK-4604,1 53618U 22104AG  23180.41159510  .00000893  00000-0  74189-4 0  9995,2 53618  53.2177 332.6330 0001092  98.8473 261.2642 15.08838723 46469,6917.884,95.438,540.505,538.994,0.0
53618.0,STARLINK-4604,PAYLOAD,2023-06-30 16:05:01,15.08848172,8.3e-05,53.2174,326.983,78.3807,281.7279,0.00017089,2.434e-05,0.0,0 STARLINK-4604,1 53618U 22104AG  23181.67015144  .00002434  00000-0  17089-3 0  9996,2 53618  53.2174 326.9830 0000830  78.3807 281.7279 15.08848172 46653,6917.855,95.437,540.295,539.146,0.0
53618.0,STARLINK-4604,PAYLOAD,2023-07-01 09:34:15,15.08840032,9.78e-05,53.2163,323.712,83.8819,276.2284,9.342e-05,1.199e-05,0.0,0 STARLINK-4604,1 53618U 22104AG  23182.39879520  .00001199  00000-0  93420-4 0  9993,2 53618  53.2163 323.7120 0000978  83.8819 276.2284 15.08840032 46769,6917.88,95.438,540.422,539.069,0.0
53618.0,STARLINK-4604,PAYLOAD,2023-07-02 15:46:35,15.08843622,9.62e-05,53.2181,318.0623,95.8213,264.2889,6.0084e-05,6.69e-06,0.0,0 STARLINK-4604,1 53618U 22104AG  23183.65735310  .00000669  00000-0  60084-4 0  9992,2 53618  53.2181 318.0623 0000962  95.8213 264.2889 15.08843622 46955,6917.869,95.437,540.4,539.069,0.0
53618.0,STARLINK-4604,PAYLOAD,2023-07-04 12:17:23,15.08832871,9.07e-05,53.2185,309.7385,93.655,266.4546,1.7478e-05,-1e-07,0.0,0 STARLINK-4604,1 53618U 22104AG  23185.51208258 -.00000010  00000-0  17478-4 0  9995,2 53618  53.2185 309.7385 0000907  93.6550 266.4546 15.08832871 47230,6917.902,95.438,540.395,539.14,0.0
53618.0,STARLINK-4604,PAYLOAD,2023-07-05 01:00:28,15.08841558,9.14e-05,53.2187,307.3578,96.5923,263.5173,6.698e-05,7.78e-06,0.0,0 STARLINK-4604,1 53618U 22104AG  23186.04199635  .00000778  00000-0  66980-4 0  9994,2 53618  53.2187 307.3578 0000914  96.5923 263.5173 15.08841558 47319,6917.876,95.437,540.373,539.108,0.0
53618.0,STARLINK-4604,PAYLOAD,2023-07-05 16:54:18,15.08856536,9.22e-05,53.2183,304.3837,94.7894,265.3204,0.00020567,2.988e-05,0.0,0 STARLINK-4604,1 53618U 22104AG  23186.70438286  .00002988  00000-0  20567-3 0  9990,2 53618  53.2183 304.3837 0000922  94.7894 265.3204 15.08856536 47414,6917.83,95.437,540.333,539.057,0.0
53618.0,STARLINK-4604,PAYLOAD,2023-07-06 00:51:15,15.08843808,0.0001068,53.2171,302.8954,82.0554,278.0559,2.4605e-05,1.04e-06,0.0,0 STARLINK-4604,1 53618U 22104AG  23187.03559039  .00000104  00000-0  24605-4 0  9993,2 53618  53.2171 302.8954 0001068  82.0554 278.0559 15.08843808 47466,6917.869,95.437,540.473,538.995,0.0
53618.0,STARLINK-4604,PAYLOAD,2023-07-06 08:48:11,15.08831405,9.52e-05,53.2179,301.4105,90.2585,269.8517,-8.1531e-05,-1.585e-05,0.0,0 STARLINK-4604,1 53618U 22104AG  23187.36679851 -.00001585  00000-0 -81531-4 0  9991,2 53618  53.2179 301.4105 0000952  90.2585 269.8517 15.08831405 47511,6917.907,95.438,540.43,539.113,0.0
53618.0,STARLINK-4604,PAYLOAD,2023-07-06 16:45:06,15.08838265,0.0001343,53.2177,299.9231,84.9163,275.1982,1.9073e-05,1.6e-07,0.0,0 STARLINK-4604,1 53618U 22104AG  23187.69799722  .00000016  00000-0  19073-4 0  9995,2 53618  53.2177 299.9231 0001343  84.9163 275.1982 15.08838265 47569,6917.886,95.438,540.68,538.822,0.0
53618.0,STARLINK-4604,PAYLOAD,2023-07-08 00:32:49,15.08842798,0.0001019,53.2163,293.9768,94.2515,265.8593,0.00022725,3.331e-05,0.0,0 STARLINK-4604,1 53618U 22104AG  23189.02279726  .00003331  00000-0  22725-3 0  9991,2 53618  53.2163 293.9768 0001019  94.2515 265.8593 15.08842798 47760,6917.872,95.437,540.442,539.032,0.0
53618.0,STARLINK-4604,PAYLOAD,2023-07-09 13:06:42,15.08834181,0.0001152,53.2168,287.1375,89.5467,270.5657,6.9601e-05,8.2e-06,0.0,0 STARLINK-4604,1 53618U 22104AG  23190.54632642  .00000820  00000-0  69601-4 0  9995,2 53618  53.2168 287.1375 0001152  89.5467 270.5657 15.08834181 47991,6917.898,95.438,540.56,538.966,0.0
53618.0,STARLINK-4604,PAYLOAD,2023-07-10 12:57:29,15.08845255,0.000107,53.217,282.6767,89.2911,270.8204,0.00022356,3.272e-05,0.0,0 STARLINK-4604,1 53618U 22104AG  23191.53992262  .00003272  00000-0  22356-3 0  9991,2 53618  53.2170 282.6767 0001070  89.2911 270.8204 15.08845255 48142,6917.864,95.437,540.47,538.989,0.0
53618.0,STARLINK-4604,PAYLOAD,2023-07-10 17:43:38,15.08855871,0.000109,53.2171,281.7842,84.8889,275.2228,5.7344e-05,6.25e-06,0.0,0 STARLINK-4604,1 53618U 22104AG  23191.73863620  .00000625  00000-0  57344-4 0  9993,2 53618  53.2171 281.7842 0001090  84.8889 275.2228 15.08855871 48177,6917.832,95.437,540.451,538.943,0.0
53618.0,STARLINK-4604,PAYLOAD,2023-07-11 06:26:44,15.08838016,0.0001435,53.2154,279.4063,92.7067,267.4089,0.00012444,1.693e-05,0.0,0 STARLINK-4604,1 53618U 22104AG  23192.26856692  .00001693  00000-0  12444-3 0  9990,2 53618  53.2154 279.4063 0001435  92.7067 267.4089 15.08838016 48255,6917.886,95.438,540.744,538.759,0.0
53618.0,STARLINK-4604,PAYLOAD,2023-07-12 12:39:03,15.08845396,0.0001233,53.2177,273.7573,96.1111,264.0022,8.538e-05,1.071e-05,0.0,0 STARLINK-4604,1 53618U 22104AG  23193.52712258  .00001071  00000-0  85380-4 0  9999,2 53618  53.2177 273.7573 0001233  96.1111 264.0022 15.08845396 48447,6917.864,95.437,540.582,538.876,0.0
53618.0,STARLINK-4604,PAYLOAD,2023-07-13 15:40:37,15.08839006,0.000115,53.2171,268.7006,88.9516,271.1608,2.7945e-05,1.57e-06,0.0,0 STARLINK-4604,1 53618U 22104AG  23194.65321063  .00000157  00000-0  27945-4 0  9991,2 53618  53.2171 268.7006 0001150  88.9516 271.1608 15.08839006 48611,6917.883,95.438,540.544,538.953,0.0
53618.0,STARLINK-4604,PAYLOAD,2023-07-14 13:56:00,15.08848043,0.000117,53.217,264.538,80.1211,279.9913,0.00012334,1.676e-05,0.0,0 STARLINK-4604,1 53618U 22104AG  23195.58056438  .00001676  00000-0  12334-3 0  9997,2 53618  53.2170 264.5380 0001170  80.1211 279.9913 15.08848043 48758,6917.856,95.437,540.53,538.911,0.0
53618.0,STARLINK-4604,PAYLOAD,2023-07-15 10:36:01,15.08844052,0.000115,53.2166,260.6726,90.7023,269.4101,0.00010094,1.319e-05,0.0,0 STARLINK-4604,1 53618U 22104AG  23196.44168786  .00001319  00000-0  10094-3 0  9998,2 53618  53.2166 260.6726 0001150  90.7023 269.4101 15.08844052 48883,6917.868,95.437,540.529,538.937,0.0
53618.0,STARLINK-4604,PAYLOAD,2023-07-16 04:05:16,15.0883817,0.0001539,53.2173,257.4028,80.1036,280.0129,5.6935e-05,6.18e-06,0.0,0 STARLINK-4604,1 53618U 22104AG  23197.17033385  .00000618  00000-0  56935-4 0  9991,2 53618  53.2173 257.4028 0001539  80.1036 280.0129 15.08838170 48993,6917.886,95.438,540.816,538.686,0.0
53618.0,STARLINK-4604,PAYLOAD,2023-07-17 10:17:36,15.0884365,0.000123,53.2164,251.7507,89.4362,270.6771,7.3374e-05,8.8e-06,0.0,0 STARLINK-4604,1 53618U 22104AG  23198.42888943  .00000880  00000-0  73374-4 0  9995,2 53618  53.2164 251.7507 0001230  89.4362 270.6771 15.08843650 49183,6917.869,95.437,540.585,538.883,0.0
53618.0,STARLINK-4604,PAYLOAD,2023-07-19 08:23:47,15.08835031,0.000125,53.2173,243.1283,86.3101,273.8034,-1.6565e-06,-3.14e-06,0.0,0 STARLINK-4604,1 53618U 22104AG  23200.34985849 -.00000314  00000-0 -16565-5 0  9997,2 53618  53.2173 243.1283 0001250  86.3101 273.8034 15.08835031 49471,6917.896,95.438,540.625,538.896,0.0
53618.0,STARLINK-4604,PAYLOAD,2023-07-20 09:49:57,15.08836528,0.0001213,53.2169,238.3691,99.6707,260.4422,-7.4769e-06,-4.07e-06,0.0,0 STARLINK-4604,1 53618U 22104AG  23201.40969861 -.00000407  00000-0 -74769-5 0  9994,2 53618  53.2169 238.3691 0001213  99.6707 260.4422 15.08836528 49636,6917.891,95.438,540.595,538.917,0.0
53618.0,STARLINK-4604,PAYLOAD,2023-07-21 11:16:08,15.08837888,0.0001105,53.2166,233.6107,90.7451,269.3668,8.2765e-05,1.03e-05,0.0,0 STARLINK-4604,1 53618U 22104AG  23202.46953784  .00001030  00000-0  82765-4 0  9993,2 53618  53.2166 233.6107 0001105  90.7451 269.3668 15.08837888 49798,6917.887,95.438,540.516,538.987,0.0
